SL-14 R/B               
1 16792U 86046B   26052.10319046  .00000384  00000+0  41482-4 0  9995
2 16792  82.4795  95.8582 0021573 283.6123  76.2690 14.85572948123944
SL-14 R/B               
1 16882U 86055B   26051.77376250  .00000443  00000+0  48183-4 0  9998
2 16882  82.5230 142.5705 0019634  32.2345  88.8123 14.85624700116851
AJISAI (EGS)            
1 16908U 86061A   26052.16253094 -.00000074  00000+0  16141-3 0  9997
2 16908  50.0085 144.1692 0011235 244.4148 141.2889 12.44515389465943
COSMOS 1812             
1 17295U 87003A   26052.12792506  .00503974  11637-3  77276-3 0  9990
2 17295  82.4738 214.5511 0004312 295.8034  64.2801 16.04336902141818
SL-14 R/B               
1 17567U 87024B   26052.14264770  .00000401  00000+0  42872-4 0  9994
2 17567  82.5270 108.3182 0017154 319.2822  40.7111 14.86115329 85670
COSMOS 1833             
1 17589U 87027A   26052.15394266 -.00000072  00000+0 -12916-4 0  9998
2 17589  70.9232   0.7690 0024829 237.1669 122.7061 14.13057233  7988
SL-16 R/B               
1 17590U 87027B   26052.10493857  .00000251  00000+0  14830-3 0  9994
2 17590  71.0038 311.4441 0004306 173.2372 186.8810 14.17165487 12996
SL-14 R/B               
1 17912U 87038B   26052.12909420  .00000416  00000+0  45505-4 0  9991
2 17912  82.5031 312.4066 0018232 215.9222 144.0769 14.85352747 76776
COSMOS 1844             
1 17973U 87041A   26052.13594179  .00000181  00000+0  11869-3 0  9998
2 17973  70.8983  69.0924 0029176  43.9820 316.3616 14.14551189  1247
SL-14 R/B               
1 18153U 87055B   26051.90688659  .00000516  00000+0  56605-4 0  9995
2 18153  82.5016   4.8445 0022226  70.4134 289.9479 14.85606640 67449
COSMOS 1867             
1 18187U 87060A   26052.09365026 -.00000031  00000+0  25849-4 0  9998
2 18187  65.0125 353.1800 0014264 277.6664  82.2801 14.31500178 17561
SL-14 R/B               
1 18749U 88001B   26051.96836553  .00000489  00000+0  53802-4 0  9997
2 18749  82.5120 211.0854 0016728 295.8473  64.1018 14.85505188 39548
