CCSDS_OMM_VERS = 2.0
CREATION_DATE  = 
ORIGINATOR     = 

OBJECT_NAME    = SL-14 R/B
OBJECT_ID      = 1986-046B
CENTER_NAME    = EARTH
REF_FRAME      = TEME
TIME_SYSTEM    = UTC
MEAN_ELEMENT_THEORY = SGP/SGP4

EPOCH          = 2026-02-21T02:28:35.655744
MEAN_MOTION    = 14.85572948
ECCENTRICITY   = .0021573
INCLINATION    = 82.4795
RA_OF_ASC_NODE = 95.8582
ARG_OF_PERICENTER = 283.6123
MEAN_ANOMALY   = 76.2690

EPHEMERIS_TYPE = 0
CLASSIFICATION_TYPE = U
NORAD_CAT_ID   = 16792
ELEMENT_SET_NO = 999
REV_AT_EPOCH   = 12394
BSTAR          = .41482E-4
MEAN_MOTION_DOT = .384E-5
MEAN_MOTION_DDOT = 0

CCSDS_OMM_VERS = 2.0
CREATION_DATE  = 
ORIGINATOR     = 

OBJECT_NAME    = SL-14 R/B
OBJECT_ID      = 1986-055B
CENTER_NAME    = EARTH
REF_FRAME      = TEME
TIME_SYSTEM    = UTC
MEAN_ELEMENT_THEORY = SGP/SGP4

EPOCH          = 2026-02-20T18:34:13.080000
MEAN_MOTION    = 14.85624700
ECCENTRICITY   = .00196349
INCLINATION    = 82.5230
RA_OF_ASC_NODE = 142.5705
ARG_OF_PERICENTER = 32.2345
MEAN_ANOMALY   = 88.8123

EPHEMERIS_TYPE = 0
CLASSIFICATION_TYPE = U
NORAD_CAT_ID   = 16882
ELEMENT_SET_NO = 999
REV_AT_EPOCH   = 11685
BSTAR          = .48182949E-4
MEAN_MOTION_DOT = .443E-5
MEAN_MOTION_DDOT = 0

CCSDS_OMM_VERS = 2.0
CREATION_DATE  = 
ORIGINATOR     = 

OBJECT_NAME    = AJISAI (EGS)
OBJECT_ID      = 1986-061A
CENTER_NAME    = EARTH
REF_FRAME      = TEME
TIME_SYSTEM    = UTC
MEAN_ELEMENT_THEORY = SGP/SGP4

EPOCH          = 2026-02-21T03:54:02.673216
MEAN_MOTION    = 12.44515389
ECCENTRICITY   = .0011235
INCLINATION    = 50.0085
RA_OF_ASC_NODE = 144.1692
ARG_OF_PERICENTER = 244.4148
MEAN_ANOMALY   = 141.2889

EPHEMERIS_TYPE = 0
CLASSIFICATION_TYPE = U
NORAD_CAT_ID   = 16908
ELEMENT_SET_NO = 999
REV_AT_EPOCH   = 46594
BSTAR          = .16141E-3
MEAN_MOTION_DOT = -.74E-6
MEAN_MOTION_DDOT = 0

CCSDS_OMM_VERS = 2.0
CREATION_DATE  = 
ORIGINATOR     = 

OBJECT_NAME    = COSMOS 1812
OBJECT_ID      = 1987-003A
CENTER_NAME    = EARTH
REF_FRAME      = TEME
TIME_SYSTEM    = UTC
MEAN_ELEMENT_THEORY = SGP/SGP4

EPOCH          = 2026-02-21T03:04:12.725184
MEAN_MOTION    = 16.04336902
ECCENTRICITY   = .0004312
INCLINATION    = 82.4738
RA_OF_ASC_NODE = 214.5511
ARG_OF_PERICENTER = 295.8034
MEAN_ANOMALY   = 64.2801

EPHEMERIS_TYPE = 0
CLASSIFICATION_TYPE = U
NORAD_CAT_ID   = 17295
ELEMENT_SET_NO = 999
REV_AT_EPOCH   = 14181
BSTAR          = .77276E-3
MEAN_MOTION_DOT = .503974E-2
MEAN_MOTION_DDOT = .11637E-3

CCSDS_OMM_VERS = 2.0
CREATION_DATE  = 
ORIGINATOR     = 

OBJECT_NAME    = SL-14 R/B
OBJECT_ID      = 1987-024B
CENTER_NAME    = EARTH
REF_FRAME      = TEME
TIME_SYSTEM    = UTC
MEAN_ELEMENT_THEORY = SGP/SGP4

EPOCH          = 2026-02-21T03:25:24.761280
MEAN_MOTION    = 14.86115329
ECCENTRICITY   = .0017154
INCLINATION    = 82.5270
RA_OF_ASC_NODE = 108.3182
ARG_OF_PERICENTER = 319.2822
MEAN_ANOMALY   = 40.7111

EPHEMERIS_TYPE = 0
CLASSIFICATION_TYPE = U
NORAD_CAT_ID   = 17567
ELEMENT_SET_NO = 999
REV_AT_EPOCH   = 8567
BSTAR          = .42872E-4
MEAN_MOTION_DOT = .401E-5
MEAN_MOTION_DDOT = 0

CCSDS_OMM_VERS = 2.0
CREATION_DATE  = 
ORIGINATOR     = 

OBJECT_NAME    = COSMOS 1833
OBJECT_ID      = 1987-027A
CENTER_NAME    = EARTH
REF_FRAME      = TEME
TIME_SYSTEM    = UTC
MEAN_ELEMENT_THEORY = SGP/SGP4

EPOCH          = 2026-02-21T03:41:40.645824
MEAN_MOTION    = 14.13057233
ECCENTRICITY   = .0024829
INCLINATION    = 70.9232
RA_OF_ASC_NODE = 0.7690
ARG_OF_PERICENTER = 237.1669
MEAN_ANOMALY   = 122.7061

EPHEMERIS_TYPE = 0
CLASSIFICATION_TYPE = U
NORAD_CAT_ID   = 17589
ELEMENT_SET_NO = 999
REV_AT_EPOCH   = 798
BSTAR          = -.12916E-4
MEAN_MOTION_DOT = -.72E-6
MEAN_MOTION_DDOT = 0

CCSDS_OMM_VERS = 2.0
CREATION_DATE  = 
ORIGINATOR     = 

OBJECT_NAME    = SL-16 R/B
OBJECT_ID      = 1987-027B
CENTER_NAME    = EARTH
REF_FRAME      = TEME
TIME_SYSTEM    = UTC
MEAN_ELEMENT_THEORY = SGP/SGP4

EPOCH          = 2026-02-21T02:31:06.692448
MEAN_MOTION    = 14.17165487
ECCENTRICITY   = .0004306
INCLINATION    = 71.0038
RA_OF_ASC_NODE = 311.4441
ARG_OF_PERICENTER = 173.2372
MEAN_ANOMALY   = 186.8810

EPHEMERIS_TYPE = 0
CLASSIFICATION_TYPE = U
NORAD_CAT_ID   = 17590
ELEMENT_SET_NO = 999
REV_AT_EPOCH   = 1299
BSTAR          = .1483E-3
MEAN_MOTION_DOT = .251E-5
MEAN_MOTION_DDOT = 0

CCSDS_OMM_VERS = 2.0
CREATION_DATE  = 
ORIGINATOR     = 

OBJECT_NAME    = SL-14 R/B
OBJECT_ID      = 1987-038B
CENTER_NAME    = EARTH
REF_FRAME      = TEME
TIME_SYSTEM    = UTC
MEAN_ELEMENT_THEORY = SGP/SGP4

EPOCH          = 2026-02-21T03:05:53.738880
MEAN_MOTION    = 14.85352747
ECCENTRICITY   = .0018232
INCLINATION    = 82.5031
RA_OF_ASC_NODE = 312.4066
ARG_OF_PERICENTER = 215.9222
MEAN_ANOMALY   = 144.0769

EPHEMERIS_TYPE = 0
CLASSIFICATION_TYPE = U
NORAD_CAT_ID   = 17912
ELEMENT_SET_NO = 999
REV_AT_EPOCH   = 7677
BSTAR          = .45505E-4
MEAN_MOTION_DOT = .416E-5
MEAN_MOTION_DDOT = 0

CCSDS_OMM_VERS = 2.0
CREATION_DATE  = 
ORIGINATOR     = 

OBJECT_NAME    = COSMOS 1844
OBJECT_ID      = 1987-041A
CENTER_NAME    = EARTH
REF_FRAME      = TEME
TIME_SYSTEM    = UTC
MEAN_ELEMENT_THEORY = SGP/SGP4

EPOCH          = 2026-02-21T03:15:45.370656
MEAN_MOTION    = 14.14551189
ECCENTRICITY   = .0029176
INCLINATION    = 70.8983
RA_OF_ASC_NODE = 69.0924
ARG_OF_PERICENTER = 43.9820
MEAN_ANOMALY   = 316.3616

EPHEMERIS_TYPE = 0
CLASSIFICATION_TYPE = U
NORAD_CAT_ID   = 17973
ELEMENT_SET_NO = 999
REV_AT_EPOCH   = 124
BSTAR          = .11869E-3
MEAN_MOTION_DOT = .181E-5
MEAN_MOTION_DDOT = 0

CCSDS_OMM_VERS = 2.0
CREATION_DATE  = 
ORIGINATOR     = 

OBJECT_NAME    = SL-14 R/B
OBJECT_ID      = 1987-055B
CENTER_NAME    = EARTH
REF_FRAME      = TEME
TIME_SYSTEM    = UTC
MEAN_ELEMENT_THEORY = SGP/SGP4

EPOCH          = 2026-02-20T21:45:55.001376
MEAN_MOTION    = 14.85606640
ECCENTRICITY   = .0022226
INCLINATION    = 82.5016
RA_OF_ASC_NODE = 4.8445
ARG_OF_PERICENTER = 70.4134
MEAN_ANOMALY   = 289.9479

EPHEMERIS_TYPE = 0
CLASSIFICATION_TYPE = U
NORAD_CAT_ID   = 18153
ELEMENT_SET_NO = 999
REV_AT_EPOCH   = 6744
BSTAR          = .56605E-4
MEAN_MOTION_DOT = .516E-5
MEAN_MOTION_DDOT = 0

CCSDS_OMM_VERS = 2.0
CREATION_DATE  = 
ORIGINATOR     = 

OBJECT_NAME    = COSMOS 1867
OBJECT_ID      = 1987-060A
CENTER_NAME    = EARTH
REF_FRAME      = TEME
TIME_SYSTEM    = UTC
MEAN_ELEMENT_THEORY = SGP/SGP4

EPOCH          = 2026-02-21T02:14:51.382464
MEAN_MOTION    = 14.31500178
ECCENTRICITY   = .0014264
INCLINATION    = 65.0125
RA_OF_ASC_NODE = 353.1800
ARG_OF_PERICENTER = 277.6664
MEAN_ANOMALY   = 82.2801

EPHEMERIS_TYPE = 0
CLASSIFICATION_TYPE = U
NORAD_CAT_ID   = 18187
ELEMENT_SET_NO = 999
REV_AT_EPOCH   = 1756
BSTAR          = .25849E-4
MEAN_MOTION_DOT = -.31E-6
MEAN_MOTION_DDOT = 0

CCSDS_OMM_VERS = 2.0
CREATION_DATE  = 
ORIGINATOR     = 

OBJECT_NAME    = SL-14 R/B
OBJECT_ID      = 1988-001B
CENTER_NAME    = EARTH
REF_FRAME      = TEME
TIME_SYSTEM    = UTC
MEAN_ELEMENT_THEORY = SGP/SGP4

EPOCH          = 2026-02-20T23:14:26.781792
MEAN_MOTION    = 14.85505188
ECCENTRICITY   = .0016728
INCLINATION    = 82.5120
RA_OF_ASC_NODE = 211.0854
ARG_OF_PERICENTER = 295.8473
MEAN_ANOMALY   = 64.1018

EPHEMERIS_TYPE = 0
CLASSIFICATION_TYPE = U
NORAD_CAT_ID   = 18749
ELEMENT_SET_NO = 999
REV_AT_EPOCH   = 3954
BSTAR          = .53802E-4
MEAN_MOTION_DOT = .489E-5
MEAN_MOTION_DDOT = 0

